ORBCOMM FM06            
1 25118U 97084G   26189.39475907  .00000885  00000+0  27712-3 0  9997
2 25118  45.0147 310.6151 0000986 210.1516 192.1856 14.47616773497464
ORBCOMM FM04            
1 25159U 98007C   26189.99310807  .00000466  00000+0  20494-3 0  9996
2 25159 107.9632 214.3005 0041865 287.4288  72.2278 14.35777721479721
ORBCOMM FM19            
1 25415U 98046C   26189.61773326  .00000735  00000+0  27888-3 0  9995
2 25415  44.9925 141.6896 0003567  21.5037 153.9339 14.39533128459860
ORBCOMM FM20            
1 25416U 98046D   26189.61805687  .00000468  00000+0  19957-3 0  9993
2 25416  44.9928 149.8479 0001977 325.6934  34.3786 14.38093192459878
ORBCOMM FM27            
1 25481U 98053G   26189.42929422  .00000467  00000+0  19507-3 0  9996
2 25481  45.0038 234.4585 0002401 267.7032  92.3542 14.39177779453290
ORBCOMM FM32            
1 25982U 99065C   26189.35349282  .00000489  00000+0  21018-3 0  9992
2 25982  45.0155  73.0491 0005034 157.9812 202.1253 14.37161684390139
ORBCOMM FM109           
1 40086U 14040A   26188.43895652  .00000319  00000+0  10364-3 0  9993
2 40086  47.0043 355.7372 0001770 299.6158  60.4551 14.58867123637300
ORBCOMM FM110           
1 41182U 15081D   26189.67672562  .00000369  00000+0  11418-3 0  9993
2 41182  47.0015 259.8334 0003268 194.3105 165.7689 14.58913187560764
ORBCOMM FM118           
1 41183U 15081E   26189.50563809  .00000211  00000+0  80900-4 0  9998
2 41183  47.0033 260.9782 0002551 153.0735 207.0284 14.58900482560844
ORBCOMM FM112           
1 41184U 15081F   26189.64675551  .00000515  00000+0  14507-3 0  9998
2 41184  46.9974 168.7675 0004022 301.5516  58.4977 14.58931606562082
ORBCOMM FM113           
1 41185U 15081G   26189.62410532  .00000253  00000+0  89812-4 0  9994
2 41185  46.9992 169.2617 0002510 297.8833  62.1799 14.58877609562068
ORBCOMM FM108           
1 41187U 15081J   26189.38076986  .00000455  00000+0  13232-3 0  9996
2 41187  47.0052  81.9922 0002956 297.6319  62.4266 14.58903233563177
ORBCOMM FM117           
1 41188U 15081K   26189.07250359  .00000414  00000+0  12376-3 0  9994
2 41188  47.0014  82.0783 0003434 302.2374  57.8178 14.58889920563175
ORBCOMM FM116           
1 41189U 15081L   26189.73754067  .00000129  00000+0  63411-4 0  9993
2 41189  47.0009 168.7225 0001330 212.2170 147.8635 14.58901693562089
